{"type": "FeatureCollection", "features": [{"type": "Feature", "properties": {"norad_id": 26766, "name": "INTELSAT 10 (IS-10)", "group": "intelsat", "lat": 6.380364865500709, "lon": -166.3541346285852, "alt_km": 36123.309202075856, "timestamp": "2025-12-09T21:34:11.074471+00:00", "meta": {"OBJECT_NAME": "INTELSAT 10 (IS-10)", "OBJECT_ID": "2001-019A", "EPOCH": "2025-12-09T15:29:15.575424", "MEAN_MOTION": 0.99078983, "ECCENTRICITY": 0.00078318, "INCLINATION": 8.6227, "RA_OF_ASC_NODE": 61.1879, "ARG_OF_PERICENTER": 222.8476, "MEAN_ANOMALY": 178.976, "EPHEMERIS_TYPE": 0, "CLASSIFICATION_TYPE": "U", "NORAD_CAT_ID": 26766, "ELEMENT_SET_NO": 999, "REV_AT_EPOCH": 4370, "BSTAR": 0, "MEAN_MOTION_DOT": -2.84e-06, "MEAN_MOTION_DDOT": 0}, "tle": {"line1": "1 26766U 01019A   25343.64531916 -.00000284  00000+0  00000+0 0  9993", "line2": "2 26766   8.6227  61.1879 0007831 222.8476 178.9760  0.99078983 43701"}}, "geometry": {"type": "Point", "coordinates": [-166.3541346285852, 6.380364865500709]}}, {"type": "Feature", "properties": {"norad_id": 26900, "name": "INTELSAT 902 (IS-902)", "group": "intelsat", "lat": -5.582333331039614, "lon": -7.675406275343375, "alt_km": 35792.12683329737, "timestamp": "2025-12-09T21:34:11.074496+00:00", "meta": {"OBJECT_NAME": "INTELSAT 902 (IS-902)", "OBJECT_ID": "2001-039A", "EPOCH": "2025-12-01T16:59:59.311968", "MEAN_MOTION": 1.00270327, "ECCENTRICITY": 0.00043097, "INCLINATION": 5.6187, "RA_OF_ASC_NODE": 74.2002, "ARG_OF_PERICENTER": 175.119, "MEAN_ANOMALY": 26.3816, "EPHEMERIS_TYPE": 0, "CLASSIFICATION_TYPE": "U", "NORAD_CAT_ID": 26900, "ELEMENT_SET_NO": 999, "REV_AT_EPOCH": 8871, "BSTAR": 0, "MEAN_MOTION_DOT": -2.63e-06, "MEAN_MOTION_DDOT": 0}, "tle": {"line1": "1 26900U 01039A   25335.70832537 -.00000263  00000+0  00000+0 0  9993", "line2": "2 26900   5.6187  74.2002 0004309 175.1190  26.3816  1.00270327 88713"}}, "geometry": {"type": "Point", "coordinates": [-7.675406275343375, -5.582333331039614]}}, {"type": "Feature", "properties": {"norad_id": 27380, "name": "INTELSAT 904 (IS-904)", "group": "intelsat", "lat": -5.606166760931806, "lon": 11.088795456504275, "alt_km": 35785.85097617602, "timestamp": "2025-12-09T21:34:11.074513+00:00", "meta": {"OBJECT_NAME": "INTELSAT 904 (IS-904)", "OBJECT_ID": "2002-007A", "EPOCH": "2025-12-09T11:42:40.881024", "MEAN_MOTION": 1.00273083, "ECCENTRICITY": 0.00015141, "INCLINATION": 6.4469, "RA_OF_ASC_NODE": 71.4685, "ARG_OF_PERICENTER": 215.3872, "MEAN_ANOMALY": 295.774, "EPHEMERIS_TYPE": 0, "CLASSIFICATION_TYPE": "U", "NORAD_CAT_ID": 27380, "ELEMENT_SET_NO": 999, "REV_AT_EPOCH": 4986, "BSTAR": 0, "MEAN_MOTION_DOT": -2.24e-06, "MEAN_MOTION_DDOT": 0}, "tle": {"line1": "1 27380U 02007A   25343.48797316 -.00000224  00000+0  00000+0 0  9998", "line2": "2 27380   6.4469  71.4685 0001514 215.3872 295.7740  1.00273083 49866"}}, "geometry": {"type": "Point", "coordinates": [11.088795456504275, -5.606166760931806]}}, {"type": "Feature", "properties": {"norad_id": 27426, "name": "DIRECTV 5 (TEMPO 1)", "group": "intelsat", "lat": -2.5140181008454667, "lon": -67.751027744998, "alt_km": 35770.29504370334, "timestamp": "2025-12-09T21:34:11.074526+00:00", "meta": {"OBJECT_NAME": "DIRECTV 5 (TEMPO 1)", "OBJECT_ID": "2002-023A", "EPOCH": "2025-12-09T12:28:39.654624", "MEAN_MOTION": 1.00272054, "ECCENTRICITY": 0.00039085, "INCLINATION": 4.3941, "RA_OF_ASC_NODE": 77.689, "ARG_OF_PERICENTER": 200.7432, "MEAN_ANOMALY": 237.1271, "EPHEMERIS_TYPE": 0, "CLASSIFICATION_TYPE": "U", "NORAD_CAT_ID": 27426, "ELEMENT_SET_NO": 999, "REV_AT_EPOCH": 8622, "BSTAR": 0, "MEAN_MOTION_DOT": -5.5e-07, "MEAN_MOTION_DDOT": 0}, "tle": {"line1": "1 27426U 02023A   25343.51990341 -.00000055  00000+0  00000+0 0  9996", "line2": "2 27426   4.3941  77.6890 0003908 200.7432 237.1271  1.00272054 86221"}}, "geometry": {"type": "Point", "coordinates": [-67.751027744998, -2.5140181008454667]}}, {"type": "Feature", "properties": {"norad_id": 27438, "name": "INTELSAT 905 (IS-905)", "group": "intelsat", "lat": -1.4441715117272986, "lon": -94.84798404279596, "alt_km": 35774.18337346406, "timestamp": "2025-12-09T21:34:11.074538+00:00", "meta": {"OBJECT_NAME": "INTELSAT 905 (IS-905)", "OBJECT_ID": "2002-027A", "EPOCH": "2025-12-09T11:59:00.274272", "MEAN_MOTION": 1.00271823, "ECCENTRICITY": 0.00028473, "INCLINATION": 6.2778, "RA_OF_ASC_NODE": 72.0923, "ARG_OF_PERICENTER": 191.5585, "MEAN_ANOMALY": 217.3829, "EPHEMERIS_TYPE": 0, "CLASSIFICATION_TYPE": "U", "NORAD_CAT_ID": 27438, "ELEMENT_SET_NO": 999, "REV_AT_EPOCH": 4946, "BSTAR": 0, "MEAN_MOTION_DOT": 9.5e-07, "MEAN_MOTION_DDOT": 0}, "tle": {"line1": "1 27438U 02027A   25343.49930873  .00000095  00000+0  00000+0 0  9997", "line2": "2 27438   6.2778  72.0923 0002847 191.5585 217.3829  1.00271823 49463"}}, "geometry": {"type": "Point", "coordinates": [-94.84798404279596, -1.4441715117272986]}}, {"type": "Feature", "properties": {"norad_id": 27445, "name": "GALAXY 3C (G-3C)", "group": "intelsat", "lat": -2.3968438425864713, "lon": -52.46891025461777, "alt_km": 35789.6407343705, "timestamp": "2025-12-09T21:34:11.074550+00:00", "meta": {"OBJECT_NAME": "GALAXY 3C (G-3C)", "OBJECT_ID": "2002-030A", "EPOCH": "2025-12-09T12:22:29.345088", "MEAN_MOTION": 1.00271037, "ECCENTRICITY": 0.00011391, "INCLINATION": 3.2564, "RA_OF_ASC_NODE": 80.5364, "ARG_OF_PERICENTER": 97.8512, "MEAN_ANOMALY": 350.8775, "EPHEMERIS_TYPE": 0, "CLASSIFICATION_TYPE": "U", "NORAD_CAT_ID": 27445, "ELEMENT_SET_NO": 999, "REV_AT_EPOCH": 4459, "BSTAR": 0, "MEAN_MOTION_DOT": -1.5e-06, "MEAN_MOTION_DDOT": 0}, "tle": {"line1": "1 27445U 02030A   25343.51561742 -.00000150  00000+0  00000+0 0  9990", "line2": "2 27445   3.2564  80.5364 0001139  97.8512 350.8775  1.00271037 44594"}}, "geometry": {"type": "Point", "coordinates": [-52.46891025461777, -2.3968438425864713]}}, {"type": "Feature", "properties": {"norad_id": 27513, "name": "INTELSAT 906 (IS-906)", "group": "intelsat", "lat": 2.777841004298302, "lon": 106.42787135913086, "alt_km": 35810.02031880171, "timestamp": "2025-12-09T21:34:11.074562+00:00", "meta": {"OBJECT_NAME": "INTELSAT 906 (IS-906)", "OBJECT_ID": "2002-041A", "EPOCH": "2025-12-09T08:44:29.355360", "MEAN_MOTION": 1.00270946, "ECCENTRICITY": 0.0006101, "INCLINATION": 5.3202, "RA_OF_ASC_NODE": 75.2716, "ARG_OF_PERICENTER": 190.1287, "MEAN_ANOMALY": 8.2128, "EPHEMERIS_TYPE": 0, "CLASSIFICATION_TYPE": "U", "NORAD_CAT_ID": 27513, "ELEMENT_SET_NO": 999, "REV_AT_EPOCH": 8512, "BSTAR": 0, "MEAN_MOTION_DOT": 1.4e-07, "MEAN_MOTION_DDOT": 0}, "tle": {"line1": "1 27513U 02041A   25343.36422865  .00000014  00000+0  00000+0 0  9991", "line2": "2 27513   5.3202  75.2716 0006101 190.1287   8.2128  1.00270946 85122"}}, "geometry": {"type": "Point", "coordinates": [106.42787135913086, 2.777841004298302]}}, {"type": "Feature", "properties": {"norad_id": 27954, "name": "GALAXY 13 (HORIZONS-1)", "group": "intelsat", "lat": 0.20534362889751723, "lon": -107.56769574453917, "alt_km": 35777.93636364202, "timestamp": "2025-12-09T21:34:11.074574+00:00", "meta": {"OBJECT_NAME": "GALAXY 13 (HORIZONS-1)", "OBJECT_ID": "2003-044A", "EPOCH": "2025-12-09T14:04:00.761952", "MEAN_MOTION": 1.00270127, "ECCENTRICITY": 0.00020235, "INCLINATION": 0.9273, "RA_OF_ASC_NODE": 86.5108, "ARG_OF_PERICENTER": 162.3964, "MEAN_ANOMALY": 250.6744, "EPHEMERIS_TYPE": 0, "CLASSIFICATION_TYPE": "U", "NORAD_CAT_ID": 27954, "ELEMENT_SET_NO": 999, "REV_AT_EPOCH": 4467, "BSTAR": 0, "MEAN_MOTION_DOT": 1.35e-06, "MEAN_MOTION_DDOT": 0}, "tle": {"line1": "1 27954U 03044A   25343.58611993  .00000135  00000+0  00000+0 0  9994", "line2": "2 27954   0.9273  86.5108 0002023 162.3964 250.6744  1.00270127 44675"}}, "geometry": {"type": "Point", "coordinates": [-107.56769574453917, 0.20534362889751723]}}, {"type": "Feature", "properties": {"norad_id": 28358, "name": "INTELSAT 10-02", "group": "intelsat", "lat": 0.0011425969244931668, "lon": 41.461221017486196, "alt_km": 35788.76505951206, "timestamp": "2025-12-09T21:34:11.074586+00:00", "meta": {"OBJECT_NAME": "INTELSAT 10-02", "OBJECT_ID": "2004-022A", "EPOCH": "2025-12-09T13:34:07.706208", "MEAN_MOTION": 1.00269981, "ECCENTRICITY": 0.00011153, "INCLINATION": 0.0308, "RA_OF_ASC_NODE": 72.1506, "ARG_OF_PERICENTER": 211.8162, "MEAN_ANOMALY": 357.1457, "EPHEMERIS_TYPE": 0, "CLASSIFICATION_TYPE": "U", "NORAD_CAT_ID": 28358, "ELEMENT_SET_NO": 999, "REV_AT_EPOCH": 7865, "BSTAR": 0, "MEAN_MOTION_DOT": -9e-08, "MEAN_MOTION_DDOT": 0}, "tle": {"line1": "1 28358U 04022A   25343.56536697 -.00000009  00000+0  00000+0 0  9996", "line2": "2 28358   0.0308  72.1506 0001115 211.8162 357.1457  1.00269981 78653"}}, "geometry": {"type": "Point", "coordinates": [41.461221017486196, 0.0011425969244931668]}}, {"type": "Feature", "properties": {"norad_id": 28626, "name": "XM-3 (RHYTHM)", "group": "intelsat", "lat": 0.1632747738532744, "lon": 170.23596278095033, "alt_km": 36165.530851768766, "timestamp": "2025-12-09T21:34:11.074599+00:00", "meta": {"OBJECT_NAME": "XM-3 (RHYTHM)", "OBJECT_ID": "2005-008A", "EPOCH": "2025-12-09T12:28:36.481152", "MEAN_MOTION": 0.989537, "ECCENTRICITY": 0.00013754, "INCLINATION": 0.1665, "RA_OF_ASC_NODE": 81.2047, "ARG_OF_PERICENTER": 264.6895, "MEAN_ANOMALY": 49.3764, "EPHEMERIS_TYPE": 0, "CLASSIFICATION_TYPE": "U", "NORAD_CAT_ID": 28626, "ELEMENT_SET_NO": 999, "REV_AT_EPOCH": 4071, "BSTAR": 0, "MEAN_MOTION_DOT": -2.38e-06, "MEAN_MOTION_DDOT": 0}, "tle": {"line1": "1 28626U 05008A   25343.51986668 -.00000238  00000+0  00000+0 0  9995", "line2": "2 28626   0.1665  81.2047 0001375 264.6895  49.3764  0.98953700 40718"}}, "geometry": {"type": "Point", "coordinates": [170.23596278095033, 0.1632747738532744]}}]}